IRIDIUM 171             
1 43929U 19002H   25138.55059017 -.00000041  00000+0 -21550-4 0  9993
2 43929  86.3995 158.7992 0002583  89.0073 271.1419 14.34216849332392
IRIDIUM 170             
1 43930U 19002J   25138.54468526  .00000452  00000+0  67743-4 0  9991
2 43930  86.6107 158.5624 0002747  99.1332 261.0196 14.72254700341192
IRIDIUM 167             
1 43931U 19002K   25138.61401612 -.00000011  00000+0 -10882-4 0  9998
2 43931  86.3986 158.5293 0002671  94.3196 265.8305 14.34217216332405
IRIDIUM 181             
1 56726U 23068S   25138.48356273  .00000468  00000+0  13314-3 0  9994
2 56726  86.4545 221.6292 0002748  84.2422 275.9093 14.43310465105504
IRIDIUM 177             
1 56727U 23068T   25138.52919681  .00000530  00000+0  66176-4 0  9993
2 56727  86.1974 156.2035 0002769  90.4247 269.7291 14.80224245107989
IRIDIUM 174             
1 56728U 23068U   25138.60036260  .00000488  00000+0  73447-4 0  9997
2 56728  86.6115 158.6461 0002003  93.1369 267.0078 14.72268047107968
IRIDIUM 178             
1 56729U 23068V   25138.58589966  .00001408  00000+0  18185-3 0  9991
2 56729  86.6591 190.1809 0002227  89.6898 270.4579 14.80231873107992
IRIDIUM 179             
1 56730U 23068W   25138.58052953  .00001442  00000+0  18628-3 0  9994
2 56730  86.6833 197.9635 0002606  96.9249 263.2269 14.80237632107992
